[{"OBJECT_NAME":"STARLINK-5703","OBJECT_ID":"2023-020AA","EPOCH":"2026-03-09T22:00:01.999584","MEAN_MOTION":15.13369533,"ECCENTRICITY":8.937e-5,"INCLINATION":43.0001,"RA_OF_ASC_NODE":2.8646,"ARG_OF_PERICENTER":241.2923,"MEAN_ANOMALY":341.0522,"EPHEMERIS_TYPE":0,"CLASSIFICATION_TYPE":"U","NORAD_CAT_ID":55593,"ELEMENT_SET_NO":999,"REV_AT_EPOCH":567,"BSTAR":0.067030028,"MEAN_MOTION_DOT":0.01321508,"MEAN_MOTION_DDOT":0},{"OBJECT_NAME":"IRIDE FM3","OBJECT_ID":"2025-276AH","EPOCH":"2026-03-09T16:50:39.561792","MEAN_MOTION":15.19640747,"ECCENTRICITY":6.614e-5,"INCLINATION":97.4248,"RA_OF_ASC_NODE":144.0388,"ARG_OF_PERICENTER":25.5203,"MEAN_ANOMALY":334.6065,"EPHEMERIS_TYPE":0,"CLASSIFICATION_TYPE":"U","NORAD_CAT_ID":66697,"ELEMENT_SET_NO":999,"REV_AT_EPOCH":1532,"BSTAR":0.00053468089,"MEAN_MOTION_DOT":0.00011338,"MEAN_MOTION_DDOT":0}]
